CCSDS_OMM_VERS = 2.0
CREATION_DATE  = 
ORIGINATOR     = 

OBJECT_NAME    = STARLINK-34542
OBJECT_ID      = 2025-224J
CENTER_NAME    = EARTH
REF_FRAME      = TEME
TIME_SYSTEM    = UTC
MEAN_ELEMENT_THEORY = SGP/SGP4

EPOCH          = 2025-10-31T20:00:03.000384
MEAN_MOTION    = 15.49361099
ECCENTRICITY   = .0001436
INCLINATION    = 53.1593
RA_OF_ASC_NODE = 251.8401
ARG_OF_PERICENTER = 89.1727
MEAN_ANOMALY   = 73.7566

EPHEMERIS_TYPE = 0
CLASSIFICATION_TYPE = U
NORAD_CAT_ID   = 65890
ELEMENT_SET_NO = 999
REV_AT_EPOCH   = 517
BSTAR          = -.14855E-2
MEAN_MOTION_DOT = -.82352E-3
MEAN_MOTION_DDOT = 0

CCSDS_OMM_VERS = 2.0
CREATION_DATE  = 
ORIGINATOR     = 

OBJECT_NAME    = STARLINK-34791
OBJECT_ID      = 2025-224K
CENTER_NAME    = EARTH
REF_FRAME      = TEME
TIME_SYSTEM    = UTC
MEAN_ELEMENT_THEORY = SGP/SGP4

EPOCH          = 2025-10-31T20:00:03.000384
MEAN_MOTION    = 15.49324771
ECCENTRICITY   = .0001398
INCLINATION    = 53.1598
RA_OF_ASC_NODE = 251.5870
ARG_OF_PERICENTER = 107.5456
MEAN_ANOMALY   = 177.3344

EPHEMERIS_TYPE = 0
CLASSIFICATION_TYPE = U
NORAD_CAT_ID   = 65891
ELEMENT_SET_NO = 999
REV_AT_EPOCH   = 517
BSTAR          = -.6583E-3
MEAN_MOTION_DOT = -.36909E-3
MEAN_MOTION_DDOT = 0

CCSDS_OMM_VERS = 2.0
CREATION_DATE  = 
ORIGINATOR     = 

OBJECT_NAME    = STARLINK-34853
OBJECT_ID      = 2025-224L
CENTER_NAME    = EARTH
REF_FRAME      = TEME
TIME_SYSTEM    = UTC
MEAN_ELEMENT_THEORY = SGP/SGP4

EPOCH          = 2025-10-31T20:00:03.000384
MEAN_MOTION    = 15.49397043
ECCENTRICITY   = .0001431
INCLINATION    = 53.1593
RA_OF_ASC_NODE = 251.8326
ARG_OF_PERICENTER = 91.7166
MEAN_ANOMALY   = 75.0373

EPHEMERIS_TYPE = 0
CLASSIFICATION_TYPE = U
NORAD_CAT_ID   = 65892
ELEMENT_SET_NO = 999
REV_AT_EPOCH   = 510
BSTAR          = -.25175E-2
MEAN_MOTION_DOT = -.138442E-2
MEAN_MOTION_DDOT = 0

CCSDS_OMM_VERS = 2.0
CREATION_DATE  = 
ORIGINATOR     = 

OBJECT_NAME    = STARLINK-34921
OBJECT_ID      = 2025-224M
CENTER_NAME    = EARTH
REF_FRAME      = TEME
TIME_SYSTEM    = UTC
MEAN_ELEMENT_THEORY = SGP/SGP4

EPOCH          = 2025-10-31T20:00:03.000384
MEAN_MOTION    = 15.49347260
ECCENTRICITY   = .000172
INCLINATION    = 53.1599
RA_OF_ASC_NODE = 251.5754
ARG_OF_PERICENTER = 109.2508
MEAN_ANOMALY   = 181.3530

EPHEMERIS_TYPE = 0
CLASSIFICATION_TYPE = U
NORAD_CAT_ID   = 65893
ELEMENT_SET_NO = 999
REV_AT_EPOCH   = 517
BSTAR          = -.88302E-3
MEAN_MOTION_DOT = -.49318E-3
MEAN_MOTION_DDOT = 0

CCSDS_OMM_VERS = 2.0
CREATION_DATE  = 
ORIGINATOR     = 

OBJECT_NAME    = STARLINK-34672
OBJECT_ID      = 2025-224N
CENTER_NAME    = EARTH
REF_FRAME      = TEME
TIME_SYSTEM    = UTC
MEAN_ELEMENT_THEORY = SGP/SGP4

EPOCH          = 2025-10-31T20:00:03.000384
MEAN_MOTION    = 15.49279892
ECCENTRICITY   = .0001838
INCLINATION    = 53.1599
RA_OF_ASC_NODE = 251.5836
ARG_OF_PERICENTER = 109.8276
MEAN_ANOMALY   = 176.9569

EPHEMERIS_TYPE = 0
CLASSIFICATION_TYPE = U
NORAD_CAT_ID   = 65894
ELEMENT_SET_NO = 999
REV_AT_EPOCH   = 517
BSTAR          = .15302E-2
MEAN_MOTION_DOT = .85506E-3
MEAN_MOTION_DDOT = 0

CCSDS_OMM_VERS = 2.0
CREATION_DATE  = 
ORIGINATOR     = 

OBJECT_NAME    = STARLINK-34898
OBJECT_ID      = 2025-224P
CENTER_NAME    = EARTH
REF_FRAME      = TEME
TIME_SYSTEM    = UTC
MEAN_ELEMENT_THEORY = SGP/SGP4

EPOCH          = 2025-10-31T20:00:03.000384
MEAN_MOTION    = 15.49354980
ECCENTRICITY   = .0001939
INCLINATION    = 53.1598
RA_OF_ASC_NODE = 251.5670
ARG_OF_PERICENTER = 109.5173
MEAN_ANOMALY   = 184.9260

EPHEMERIS_TYPE = 0
CLASSIFICATION_TYPE = U
NORAD_CAT_ID   = 65895
ELEMENT_SET_NO = 999
REV_AT_EPOCH   = 517
BSTAR          = -.12539E-2
MEAN_MOTION_DOT = -.69685E-3
MEAN_MOTION_DDOT = 0

CCSDS_OMM_VERS = 2.0
CREATION_DATE  = 
ORIGINATOR     = 

OBJECT_NAME    = STARLINK-34906
OBJECT_ID      = 2025-224Q
CENTER_NAME    = EARTH
REF_FRAME      = TEME
TIME_SYSTEM    = UTC
MEAN_ELEMENT_THEORY = SGP/SGP4

EPOCH          = 2025-10-31T20:00:03.000384
MEAN_MOTION    = 15.49339948
ECCENTRICITY   = .0001505
INCLINATION    = 53.1599
RA_OF_ASC_NODE = 251.5710
ARG_OF_PERICENTER = 109.6703
MEAN_ANOMALY   = 182.8538

EPHEMERIS_TYPE = 0
CLASSIFICATION_TYPE = U
NORAD_CAT_ID   = 65896
ELEMENT_SET_NO = 999
REV_AT_EPOCH   = 517
BSTAR          = -.67397E-3
MEAN_MOTION_DOT = -.37793E-3
MEAN_MOTION_DDOT = 0

CCSDS_OMM_VERS = 2.0
CREATION_DATE  = 
ORIGINATOR     = 

OBJECT_NAME    = STARLINK-34934
OBJECT_ID      = 2025-224R
CENTER_NAME    = EARTH
REF_FRAME      = TEME
TIME_SYSTEM    = UTC
MEAN_ELEMENT_THEORY = SGP/SGP4

EPOCH          = 2025-10-31T20:00:03.000384
MEAN_MOTION    = 15.49509629
ECCENTRICITY   = .0001473
INCLINATION    = 53.1598
RA_OF_ASC_NODE = 251.5593
ARG_OF_PERICENTER = 102.6808
MEAN_ANOMALY   = 195.6196

EPHEMERIS_TYPE = 0
CLASSIFICATION_TYPE = U
NORAD_CAT_ID   = 65897
ELEMENT_SET_NO = 999
REV_AT_EPOCH   = 512
BSTAR          = -.64073E-2
MEAN_MOTION_DOT = -.344009E-2
MEAN_MOTION_DDOT = 0

CCSDS_OMM_VERS = 2.0
CREATION_DATE  = 
ORIGINATOR     = 

OBJECT_NAME    = STARLINK-34936
OBJECT_ID      = 2025-224S
CENTER_NAME    = EARTH
REF_FRAME      = TEME
TIME_SYSTEM    = UTC
MEAN_ELEMENT_THEORY = SGP/SGP4

EPOCH          = 2025-10-31T20:00:03.000384
MEAN_MOTION    = 15.49277618
ECCENTRICITY   = .0001661
INCLINATION    = 53.1599
RA_OF_ASC_NODE = 251.5634
ARG_OF_PERICENTER = 110.1104
MEAN_ANOMALY   = 186.2591

EPHEMERIS_TYPE = 0
CLASSIFICATION_TYPE = U
NORAD_CAT_ID   = 65898
ELEMENT_SET_NO = 999
REV_AT_EPOCH   = 517
BSTAR          = .1682E-2
MEAN_MOTION_DOT = .9413E-3
MEAN_MOTION_DDOT = 0

CCSDS_OMM_VERS = 2.0
CREATION_DATE  = 
ORIGINATOR     = 

OBJECT_NAME    = STARLINK-35272
OBJECT_ID      = 2025-224T
CENTER_NAME    = EARTH
REF_FRAME      = TEME
TIME_SYSTEM    = UTC
MEAN_ELEMENT_THEORY = SGP/SGP4

EPOCH          = 2025-10-31T20:00:03.000384
MEAN_MOTION    = 15.49305965
ECCENTRICITY   = .0001225
INCLINATION    = 53.1600
RA_OF_ASC_NODE = 251.5541
ARG_OF_PERICENTER = 91.5426
MEAN_ANOMALY   = 208.6614

EPHEMERIS_TYPE = 0
CLASSIFICATION_TYPE = U
NORAD_CAT_ID   = 65899
ELEMENT_SET_NO = 999
REV_AT_EPOCH   = 516
BSTAR          = .18625E-3
MEAN_MOTION_DOT = .9922E-4
MEAN_MOTION_DDOT = 0

CCSDS_OMM_VERS = 2.0
CREATION_DATE  = 
ORIGINATOR     = 

OBJECT_NAME    = STARLINK-35264
OBJECT_ID      = 2025-224U
CENTER_NAME    = EARTH
REF_FRAME      = TEME
TIME_SYSTEM    = UTC
MEAN_ELEMENT_THEORY = SGP/SGP4

EPOCH          = 2025-10-31T20:00:03.000384
MEAN_MOTION    = 15.49315292
ECCENTRICITY   = .000137
INCLINATION    = 53.1598
RA_OF_ASC_NODE = 251.5503
ARG_OF_PERICENTER = 98.3484
MEAN_ANOMALY   = 203.7737

EPHEMERIS_TYPE = 0
CLASSIFICATION_TYPE = U
NORAD_CAT_ID   = 65900
ELEMENT_SET_NO = 999
REV_AT_EPOCH   = 516
BSTAR          = -.19839E-3
MEAN_MOTION_DOT = -.11468E-3
MEAN_MOTION_DDOT = 0

CCSDS_OMM_VERS = 2.0
CREATION_DATE  = 
ORIGINATOR     = 

OBJECT_NAME    = STARLINK-35249
OBJECT_ID      = 2025-224V
CENTER_NAME    = EARTH
REF_FRAME      = TEME
TIME_SYSTEM    = UTC
MEAN_ELEMENT_THEORY = SGP/SGP4

EPOCH          = 2025-10-31T20:00:03.000384
MEAN_MOTION    = 15.49349508
ECCENTRICITY   = .0001418
INCLINATION    = 53.1597
RA_OF_ASC_NODE = 251.5471
ARG_OF_PERICENTER = 113.6071
MEAN_ANOMALY   = 190.4216

EPHEMERIS_TYPE = 0
CLASSIFICATION_TYPE = U
NORAD_CAT_ID   = 65901
ELEMENT_SET_NO = 999
REV_AT_EPOCH   = 515
BSTAR          = -.10154E-2
MEAN_MOTION_DOT = -.56592E-3
MEAN_MOTION_DDOT = 0

