STARLINK-34542          
1 65890U 25224J   25304.83336806 -.00082352  00000+0 -14855-2 0  9990
2 65890  53.1593 251.8401 0001436  89.1727  73.7566 15.49361099  5179
STARLINK-34791          
1 65891U 25224K   25304.83336806 -.00036909  00000+0 -65830-3 0  9998
2 65891  53.1598 251.5870 0001398 107.5456 177.3344 15.49324771  5174
STARLINK-34853          
1 65892U 25224L   25304.83336806 -.00138442  00000+0 -25175-2 0  9991
2 65892  53.1593 251.8326 0001431  91.7166  75.0373 15.49397043  5100
STARLINK-34921          
1 65893U 25224M   25304.83336806 -.00049318  00000+0 -88302-3 0  9997
2 65893  53.1599 251.5754 0001720 109.2508 181.3530 15.49347260  5174
STARLINK-34672          
1 65894U 25224N   25304.83336806  .00085506  00000+0  15302-2 0  9994
2 65894  53.1599 251.5836 0001838 109.8276 176.9569 15.49279892  5171
STARLINK-34898          
1 65895U 25224P   25304.83336806 -.00069685  00000+0 -12539-2 0  9996
2 65895  53.1598 251.5670 0001939 109.5173 184.9260 15.49354980  5171
STARLINK-34906          
1 65896U 25224Q   25304.83336806 -.00037793  00000+0 -67397-3 0  9995
2 65896  53.1599 251.5710 0001505 109.6703 182.8538 15.49339948  5179
STARLINK-34934          
1 65897U 25224R   25304.83336806 -.00344009  00000+0 -64073-2 0  9994
2 65897  53.1598 251.5593 0001473 102.6808 195.6196 15.49509629  5123
STARLINK-34936          
1 65898U 25224S   25304.83336806  .00094130  00000+0  16820-2 0  9997
2 65898  53.1599 251.5634 0001661 110.1104 186.2591 15.49277618  5173
STARLINK-35272          
1 65899U 25224T   25304.83336806  .00009922  00000+0  18625-3 0  9999
2 65899  53.1600 251.5541 0001225  91.5426 208.6614 15.49305965  5160
STARLINK-35264          
1 65900U 25224U   25304.83336806 -.00011468  00000+0 -19839-3 0  9990
2 65900  53.1598 251.5503 0001370  98.3484 203.7737 15.49315292  5163
STARLINK-35249          
1 65901U 25224V   25304.83336806 -.00056592  00000+0 -10154-2 0  9998
2 65901  53.1597 251.5471 0001418 113.6071 190.4216 15.49349508  5153
